[{"OBJECT_NAME":"KUIPER-00084","OBJECT_ID":"2025-151Q","EPOCH":"2026-03-09T22:58:22.962144","MEAN_MOTION":14.79962347,"ECCENTRICITY":1.281e-5,"INCLINATION":51.9008,"RA_OF_ASC_NODE":304.3929,"ARG_OF_PERICENTER":57.8143,"MEAN_ANOMALY":302.2832,"EPHEMERIS_TYPE":0,"CLASSIFICATION_TYPE":"U","NORAD_CAT_ID":64830,"ELEMENT_SET_NO":999,"REV_AT_EPOCH":3527,"BSTAR":-0.00029939459,"MEAN_MOTION_DOT":-2.504e-5,"MEAN_MOTION_DDOT":0},{"OBJECT_NAME":"SL-14 R\/B","OBJECT_ID":"1995-046C","EPOCH":"2026-03-09T21:50:36.185856","MEAN_MOTION":14.80314206,"ECCENTRICITY":0.0023586,"INCLINATION":82.5282,"RA_OF_ASC_NODE":225.2244,"ARG_OF_PERICENTER":236.9942,"MEAN_ANOMALY":284.2588,"EPHEMERIS_TYPE":0,"CLASSIFICATION_TYPE":"U","NORAD_CAT_ID":23659,"ELEMENT_SET_NO":999,"REV_AT_EPOCH":64532,"BSTAR":7.9944983e-5,"MEAN_MOTION_DOT":6.35e-6,"MEAN_MOTION_DDOT":0}]
